ONEWEB-0668             
1 56711U 23068B   24151.19056545  .00000064  00000+0  13492-3 0  9998
2 56711  87.9110  17.6858 0001848  62.3986 297.7332 13.16593292 54056
ONEWEB-0676             
1 56712U 23068C   24150.71465505  .00000073  00000+0  15739-3 0  9992
2 56712  87.9120  17.7847 0001566 100.3212 259.8096 13.16594436 53213
ONEWEB-0677             
1 56713U 23068D   24151.15681334  .00065192  00000+0  12802+0 0  9999
2 56713  88.1445  63.2461 0002851   9.5755 350.5441 13.35234018 51731
ONEWEB-0678             
1 56714U 23068E   24151.13615300 -.00000293  00000+0 -81299-3 0  9991
2 56714  87.9060  48.0263 0002092  88.5972 271.5398 13.15548058 51630
ONEWEB-0679             
1 56715U 23068F   24151.13990054  .00000048  00000+0  92080-4 0  9991
2 56715  87.9114  17.7043 0001181  66.0654 294.0600 13.16592931 53993
ONEWEB-0680             
1 56716U 23068G   24150.68678688  .00000055  00000+0  10234-3 0  9995
2 56716  87.9305  33.0143 0001962  55.7454 304.3865 13.21825982 52211
ONEWEB-0681             
1 56717U 23068H   24150.69710039 -.00000199  00000+0 -51377-3 0  9998
2 56717  87.9304  32.9929 0001345 121.9061 238.2204 13.21824552 52209
ONEWEB-0682             
1 56718U 23068J   24150.70595708  .00000175  00000+0  43194-3 0  9995
2 56718  87.9057  48.1544 0001670  59.5127 300.6168 13.15549063 51045
